STARLINK-31349          
1 59317U 24056X   26068.48338253 -.00000207  00000+0  20049-5 0  9999
2 59317  42.9995 231.7936 0001108 266.9092  93.1633 15.27574483111194
NUSAT-48 (HENRIETTA LE*)
1 60498U 24149AG  26068.80506098  .00012988  00000+0  45212-3 0  9999
2 60498  97.3923 150.8264 0002754 263.3026  96.7901 15.29812597 86946
